{"type": "FeatureCollection", "features": [ {"type": "Feature", "properties": {"norad_id": 66805, "name": "STARLINK-36049", "group": "last-30-days", "lat": 25.76061819842682, "lon": -90.30072002525748, "alt_km": 324.4468051963322, "timestamp": "2025-12-14T22:38:39.518255+00:00", "meta": {"OBJECT_NAME": "STARLINK-36049", "OBJECT_ID": "2025-278Q", "EPOCH": "2025-12-14T06:00:02.999808", "MEAN_MOTION": 15.82863574, "ECCENTRICITY": 0.00019289, "INCLINATION": 42.9971, "RA_OF_ASC_NODE": 242.757, "ARG_OF_PERICENTER": 280.5001, "MEAN_ANOMALY": 125.1188, "EPHEMERIS_TYPE": 0, "CLASSIFICATION_TYPE": "U", "NORAD_CAT_ID": 66805, "ELEMENT_SET_NO": 999, "REV_AT_EPOCH": 320, "BSTAR": -0.0067622224, "MEAN_MOTION_DOT": -0.01304448, "MEAN_MOTION_DDOT": 0}, "tle": {"line1": "1 66805U 25278Q   25348.25003472 -.01304448  00000+0 -67622-2 0  9994", "line2": "2 66805  42.9971 242.7570 0001928 280.5001 125.1188 15.82863574  3202"}}, "geometry": {"type": "Point", "coordinates": [-90.30072002525748, 25.76061819842682]}}, {"type": "Feature", "properties": {"norad_id": 66806, "name": "STARLINK-36069", "group": "last-30-days", "lat": 24.350079149585152, "lon": -92.42779826822957, "alt_km": 324.49228009226226, "timestamp": "2025-12-14T22:38:39.518265+00:00", "meta": {"OBJECT_NAME": "STARLINK-36069", "OBJECT_ID": "2025-278R", "EPOCH": "2025-12-14T06:00:02.999808", "MEAN_MOTION": 15.82895723, "ECCENTRICITY": 0.00018891, "INCLINATION": 42.9974, "RA_OF_ASC_NODE": 242.7636, "ARG_OF_PERICENTER": 280.4276, "MEAN_ANOMALY": 122.7112, "EPHEMERIS_TYPE": 0, "CLASSIFICATION_TYPE": "U", "NORAD_CAT_ID": 66806, "ELEMENT_SET_NO": 999, "REV_AT_EPOCH": 299, "BSTAR": -0.0067257074, "MEAN_MOTION_DOT": -0.01299982, "MEAN_MOTION_DDOT": 0}, "tle": {"line1": "1 66806U 25278R   25348.25003472 -.01299982  00000+0 -67257-2 0  9995", "line2": "2 66806  42.9974 242.7636 0001889 280.4276 122.7112 15.82895723  2994"}}, "geometry": {"type": "Point", "coordinates": [-92.42779826822957, 24.350079149585152]}}, {"type": "Feature", "properties": {"norad_id": 66807, "name": "STARLINK-36000", "group": "last-30-days", "lat": 28.33202759291797, "lon": -86.14836196411454, "alt_km": 324.42669190368815, "timestamp": "2025-12-14T22:38:39.518278+00:00", "meta": {"OBJECT_NAME": "STARLINK-36000", "OBJECT_ID": "2025-278S", "EPOCH": "2025-12-14T06:00:02.999808", "MEAN_MOTION": 15.82831753, "ECCENTRICITY": 0.00018491, "INCLINATION": 42.9972, "RA_OF_ASC_NODE": 242.7456, "ARG_OF_PERICENTER": 275.2527, "MEAN_ANOMALY": 134.9887, "EPHEMERIS_TYPE": 0, "CLASSIFICATION_TYPE": "U", "NORAD_CAT_ID": 66807, "ELEMENT_SET_NO": 999, "REV_AT_EPOCH": 326, "BSTAR": -0.0068632041, "MEAN_MOTION_DOT": -0.01319711, "MEAN_MOTION_DDOT": 0}, "tle": {"line1": "1 66807U 25278S   25348.25003472 -.01319711  00000+0 -68632-2 0  9997", "line2": "2 66807  42.9972 242.7456 0001849 275.2527 134.9887 15.82831753  3268"}}, "geometry": {"type": "Point", "coordinates": [-86.14836196411454, 28.33202759291797]}}, {"type": "Feature", "properties": {"norad_id": 66808, "name": "STARLINK-36071", "group": "last-30-days", "lat": 29.532260920059663, "lon": -84.06464909226331, "alt_km": 324.2456785501172, "timestamp": "2025-12-14T22:38:39.518290+00:00", "meta": {"OBJECT_NAME": "STARLINK-36071", "OBJECT_ID": "2025-278T", "EPOCH": "2025-12-14T06:00:02.999808", "MEAN_MOTION": 15.82820449, "ECCENTRICITY": 0.00018723, "INCLINATION": 42.9972, "RA_OF_ASC_NODE": 242.7395, "ARG_OF_PERICENTER": 278.7888, "MEAN_ANOMALY": 133.6737, "EPHEMERIS_TYPE": 0, "CLASSIFICATION_TYPE": "U", "NORAD_CAT_ID": 66808, "ELEMENT_SET_NO": 999, "REV_AT_EPOCH": 320, "BSTAR": -0.0068903922, "MEAN_MOTION_DOT": -0.01323682, "MEAN_MOTION_DDOT": 0}, "tle": {"line1": "1 66808U 25278T   25348.25003472 -.01323682  00000+0 -68904-2 0  9992", "line2": "2 66808  42.9972 242.7395 0001872 278.7888 133.6737 15.82820449  3209"}}, "geometry": {"type": "Point", "coordinates": [-84.06464909226331, 29.532260920059663]}}, {"type": "Feature", "properties": {"norad_id": 66809, "name": "STARLINK-35979", "group": "last-30-days", "lat": 33.22175554651852, "lon": -76.86840174435413, "alt_km": 324.1031268541319, "timestamp": "2025-12-14T22:38:39.518300+00:00", "meta": {"OBJECT_NAME": "STARLINK-35979", "OBJECT_ID": "2025-278U", "EPOCH": "2025-12-14T06:00:02.999808", "MEAN_MOTION": 15.8273016, "ECCENTRICITY": 0.00018348, "INCLINATION": 42.9971, "RA_OF_ASC_NODE": 242.7208, "ARG_OF_PERICENTER": 281.8414, "MEAN_ANOMALY": 138.0756, "EPHEMERIS_TYPE": 0, "CLASSIFICATION_TYPE": "U", "NORAD_CAT_ID": 66809, "ELEMENT_SET_NO": 999, "REV_AT_EPOCH": 320, "BSTAR": -0.007085003, "MEAN_MOTION_DOT": -0.01351192, "MEAN_MOTION_DDOT": 0}, "tle": {"line1": "1 66809U 25278U   25348.25003472 -.01351192  00000+0 -70850-2 0  9993", "line2": "2 66809  42.9971 242.7208 0001834 281.8414 138.0756 15.82730160  3200"}}, "geometry": {"type": "Point", "coordinates": [-76.86840174435413, 33.22175554651852]}}, {"type": "Feature", "properties": {"norad_id": 66810, "name": "STARLINK-36046", "group": "last-30-days", "lat": 30.82470427722933, "lon": -81.69397909336794, "alt_km": 324.2595710598798, "timestamp": "2025-12-14T22:38:39.518310+00:00", "meta": {"OBJECT_NAME": "STARLINK-36046", "OBJECT_ID": "2025-278V", "EPOCH": "2025-12-14T06:00:02.999808", "MEAN_MOTION": 15.82786414, "ECCENTRICITY": 0.00018608, "INCLINATION": 42.9974, "RA_OF_ASC_NODE": 242.7336, "ARG_OF_PERICENTER": 277.4249, "MEAN_ANOMALY": 137.5655, "EPHEMERIS_TYPE": 0, "CLASSIFICATION_TYPE": "U", "NORAD_CAT_ID": 66810, "ELEMENT_SET_NO": 999, "REV_AT_EPOCH": 297, "BSTAR": -0.0069501294, "MEAN_MOTION_DOT": -0.01331821, "MEAN_MOTION_DDOT": 0}, "tle": {"line1": "1 66810U 25278V   25348.25003472 -.01331821  00000+0 -69501-2 0  9993", "line2": "2 66810  42.9974 242.7336 0001860 277.4249 137.5655 15.82786414  2971"}}, "geometry": {"type": "Point", "coordinates": [-81.69397909336794, 30.82470427722933]}}, {"type": "Feature", "properties": {"norad_id": 66811, "name": "STARLINK-36045", "group": "last-30-days", "lat": 32.08356662534656, "lon": -79.23765422922565, "alt_km": 324.23801350173653, "timestamp": "2025-12-14T22:38:39.518320+00:00", "meta": {"OBJECT_NAME": "STARLINK-36045", "OBJECT_ID": "2025-278W", "EPOCH": "2025-12-14T06:00:02.999808", "MEAN_MOTION": 15.82751398, "ECCENTRICITY": 0.00018449, "INCLINATION": 42.9974, "RA_OF_ASC_NODE": 242.7272, "ARG_OF_PERICENTER": 277.3825, "MEAN_ANOMALY": 140.1579, "EPHEMERIS_TYPE": 0, "CLASSIFICATION_TYPE": "U", "NORAD_CAT_ID": 66811, "ELEMENT_SET_NO": 999, "REV_AT_EPOCH": 320, "BSTAR": -0.0070050971, "MEAN_MOTION_DOT": -0.0133906, "MEAN_MOTION_DDOT": 0}, "tle": {"line1": "1 66811U 25278W   25348.25003472 -.01339060  00000+0 -70051-2 0  9999", "line2": "2 66811  42.9974 242.7272 0001844 277.3825 140.1579 15.82751398  3207"}}, "geometry": {"type": "Point", "coordinates": [-79.23765422922565, 32.08356662534656]}}, {"type": "Feature", "properties": {"norad_id": 66812, "name": "STARLINK-36054", "group": "last-30-days", "lat": 34.239995989243205, "lon": -74.60762599466932, "alt_km": 324.08009116304856, "timestamp": "2025-12-14T22:38:39.518329+00:00", "meta": {"OBJECT_NAME": "STARLINK-36054", "OBJECT_ID": "2025-278X", "EPOCH": "2025-12-14T06:00:02.999808", "MEAN_MOTION": 15.82718578, "ECCENTRICITY": 0.00018036, "INCLINATION": 42.9974, "RA_OF_ASC_NODE": 242.7157, "ARG_OF_PERICENTER": 278.5976, "MEAN_ANOMALY": 143.4871, "EPHEMERIS_TYPE": 0, "CLASSIFICATION_TYPE": "U", "NORAD_CAT_ID": 66812, "ELEMENT_SET_NO": 999, "REV_AT_EPOCH": 320, "BSTAR": -0.007081552, "MEAN_MOTION_DOT": -0.01349942, "MEAN_MOTION_DDOT": 0}, "tle": {"line1": "1 66812U 25278X   25348.25003472 -.01349942  00000+0 -70816-2 0  9999", "line2": "2 66812  42.9974 242.7157 0001803 278.5976 143.4871 15.82718578  3209"}}, "geometry": {"type": "Point", "coordinates": [-74.60762599466932, 34.239995989243205]}}, {"type": "Feature", "properties": {"norad_id": 66813, "name": "STARLINK-36042", "group": "last-30-days", "lat": 35.17443671509586, "lon": -72.3934934507773, "alt_km": 323.95402858421676, "timestamp": "2025-12-14T22:38:39.518339+00:00", "meta": {"OBJECT_NAME": "STARLINK-36042", "OBJECT_ID": "2025-278Y", "EPOCH": "2025-12-14T06:00:02.999808", "MEAN_MOTION": 15.82721098, "ECCENTRICITY": 0.00017756, "INCLINATION": 42.9974, "RA_OF_ASC_NODE": 242.7102, "ARG_OF_PERICENTER": 279.288, "MEAN_ANOMALY": 144.8472, "EPHEMERIS_TYPE": 0, "CLASSIFICATION_TYPE": "U", "NORAD_CAT_ID": 66813, "ELEMENT_SET_NO": 999, "REV_AT_EPOCH": 320, "BSTAR": -0.0071055076, "MEAN_MOTION_DOT": -0.01354049, "MEAN_MOTION_DDOT": 0}, "tle": {"line1": "1 66813U 25278Y   25348.25003472 -.01354049  00000+0 -71055-2 0  9990", "line2": "2 66813  42.9974 242.7102 0001775 279.2880 144.8472 15.82721098  3203"}}, "geometry": {"type": "Point", "coordinates": [-72.3934934507773, 35.17443671509586]}}, {"type": "Feature", "properties": {"norad_id": 66814, "name": "STARLINK-35984", "group": "last-30-days", "lat": 40.42792103101134, "lon": -55.46748635892423, "alt_km": 324.2609517791889, "timestamp": "2025-12-14T22:38:39.518351+00:00", "meta": {"OBJECT_NAME": "STARLINK-35984", "OBJECT_ID": "2025-278Z", "EPOCH": "2025-12-14T06:00:02.999808", "MEAN_MOTION": 15.82509309, "ECCENTRICITY": 0.00017392, "INCLINATION": 42.9973, "RA_OF_ASC_NODE": 242.672, "ARG_OF_PERICENTER": 274.59, "MEAN_ANOMALY": 164.5318, "EPHEMERIS_TYPE": 0, "CLASSIFICATION_TYPE": "U", "NORAD_CAT_ID": 66814, "ELEMENT_SET_NO": 999, "REV_AT_EPOCH": 329, "BSTAR": -0.0074662586, "MEAN_MOTION_DOT": -0.01429347, "MEAN_MOTION_DDOT": 0}, "tle": {"line1": "1 66814U 25278Z   25348.25003472 -.01429347  00000+0 -74663-2 0  9993", "line2": "2 66814  42.9973 242.6720 0001739 274.5900 164.5318 15.82509309  3295"}}, "geometry": {"type": "Point", "coordinates": [-55.46748635892423, 40.42792103101134]}}]}